[Satellite]
VERSION=1.1
NAME=UNSW-ECO
NICKNAME=UNSW-ECO
TLE1=1 42723U 98067MC  17186.20400818  .00009566  00000-0  14339-3 0  9993
TLE2=2 42723  51.6407 308.1817 0008104  13.1396 346.9805 15.55644002  6369
